<?xml version="1.0" encoding="UTF-8"?>
<gpx xmlns="http://www.topografix.com/GPX/1/1" xmlns:xsi="http://www.w3.org/2001/XMLSchema-instance" creator="SkyVector" version="1.1" xsi:schemaLocation="http://www.topografix.com/GPX/1/1 http://www.topografix.com/GPX/1/1/gpx.xsd">
  <rte>
    <name>EGOBA-HAMND</name>
    <rtept lat="37.487417" lon="127.379417">
      <name>EGOBA</name>
      <overfly>false</overfly>
    </rtept>
    <rtept lat="37.533056" lon="127.664444">
      <name>KARBU</name>
      <overfly>false</overfly>
    </rtept>
    <rtept lat="37.606944" lon="128.135278">
      <name>TORUS</name>
      <overfly>false</overfly>
    </rtept>
    <rtept lat="37.675556" lon="128.584444">
      <name>BIKSI</name>
      <overfly>false</overfly>
    </rtept>
    <rtept lat="37.700778" lon="128.753778">
      <name>KAE</name>
      <overfly>false</overfly>
    </rtept>
    <rtept lat="37.441944" lon="129.291944">
      <name>PILIT</name>
      <overfly>false</overfly>
    </rtept>
    <rtept lat="37.170556" lon="129.847500">
      <name>ESNEG</name>
      <overfly>false</overfly>
    </rtept>
    <rtept lat="36.755833" lon="130.678889">
      <name>AGSUS</name>
      <overfly>false</overfly>
    </rtept>
    <rtept lat="36.373236" lon="131.428317">
      <name>LANAT</name>
      <overfly>false</overfly>
    </rtept>
    <rtept lat="36.281667" lon="133.761017">
      <name>DISSH</name>
      <overfly>false</overfly>
    </rtept>
    <rtept lat="36.265153" lon="134.088203">
      <name>OVSOS</name>
      <overfly>false</overfly>
    </rtept>
    <rtept lat="36.242897" lon="134.503319">
      <name>SAMON</name>
      <overfly>false</overfly>
    </rtept>
    <rtept lat="37.099556" lon="136.720747">
      <name>NESKO</name>
      <overfly>false</overfly>
    </rtept>
    <rtept lat="37.710294" lon="138.403994">
      <name>BEGSA</name>
      <overfly>false</overfly>
    </rtept>
    <rtept lat="37.958294" lon="139.114886">
      <name>GTC</name>
      <overfly>false</overfly>
    </rtept>
    <rtept lat="38.026075" lon="139.761208">
      <name>ELDAK</name>
      <overfly>false</overfly>
    </rtept>
    <rtept lat="38.138572" lon="140.921483">
      <name>SDE</name>
      <overfly>false</overfly>
    </rtept>
    <rtept lat="38.005869" lon="142.061656">
      <name>BEKEN</name>
      <overfly>false</overfly>
    </rtept>
    <rtept lat="37.857286" lon="143.233467">
      <name>SOVMO</name>
      <overfly>false</overfly>
    </rtept>
    <rtept lat="37.816442" lon="143.539686">
      <name>OATIS</name>
      <overfly>false</overfly>
    </rtept>
    <rtept lat="38.332381" lon="145.518681">
      <name>PUTER</name>
      <overfly>false</overfly>
    </rtept>
    <rtept lat="48.278997" lon="160.681314">
      <name>PASRO</name>
      <overfly>false</overfly>
    </rtept>
    <rtept lat="50.174575" lon="165.123283">
      <name>POWAL</name>
      <overfly>false</overfly>
    </rtept>
    <rtept lat="52.120317" lon="170.738669">
      <name>PLADO</name>
      <overfly>false</overfly>
    </rtept>
    <rtept lat="53.534475" lon="173.547522">
      <name>PINSO</name>
      <overfly>false</overfly>
    </rtept>
    <rtept lat="55.323439" lon="178.727086">
      <name>POOFF</name>
      <overfly>false</overfly>
    </rtept>
    <rtept lat="56.823267" lon="-175.880539">
      <name>PINTT</name>
      <overfly>false</overfly>
    </rtept>
    <rtept lat="57.335350" lon="-173.684733">
      <name>PTZGR</name>
      <overfly>false</overfly>
    </rtept>
    <rtept lat="57.957225" lon="-170.764803">
      <name>PUGGY</name>
      <overfly>false</overfly>
    </rtept>
    <rtept lat="58.702956" lon="-166.990436">
      <name>POETT</name>
      <overfly>false</overfly>
    </rtept>
    <rtept lat="58.887714" lon="-165.948894">
      <name>SELDM</name>
      <overfly>false</overfly>
    </rtept>
    <rtept lat="59.457389" lon="-162.321742">
      <name>PORGE</name>
      <overfly>false</overfly>
    </rtept>
    <rtept lat="60.498536" lon="-154.676725">
      <name>HAMND</name>
      <overfly>false</overfly>
    </rtept>

  </rte>
</gpx>
