<?xml version="1.0" encoding="UTF-8"?>
<gpx xmlns="http://www.topografix.com/GPX/1/1" xmlns:xsi="http://www.w3.org/2001/XMLSchema-instance" creator="SkyVector" version="1.1" xsi:schemaLocation="http://www.topografix.com/GPX/1/1 http://www.topografix.com/GPX/1/1/gpx.xsd">
  <rte>
    <name>EGOBA-CHBLI</name>
    <rtept lat="37.487417" lon="127.379417">
      <name>EGOBA</name>
      <overfly>false</overfly>
    </rtept>
    <rtept lat="37.533056" lon="127.664444">
      <name>KARBU</name>
      <overfly>false</overfly>
    </rtept>
    <rtept lat="37.606944" lon="128.135278">
      <name>TORUS</name>
      <overfly>false</overfly>
    </rtept>
    <rtept lat="37.675556" lon="128.584444">
      <name>BIKSI</name>
      <overfly>false</overfly>
    </rtept>
    <rtept lat="37.700778" lon="128.753778">
      <name>KAE</name>
      <overfly>false</overfly>
    </rtept>
    <rtept lat="37.441944" lon="129.291944">
      <name>PILIT</name>
      <overfly>false</overfly>
    </rtept>
    <rtept lat="37.170556" lon="129.847500">
      <name>ESNEG</name>
      <overfly>false</overfly>
    </rtept>
    <rtept lat="36.755833" lon="130.678889">
      <name>AGSUS</name>
      <overfly>false</overfly>
    </rtept>
    <rtept lat="36.373236" lon="131.428317">
      <name>LANAT</name>
      <overfly>false</overfly>
    </rtept>
    <rtept lat="36.281667" lon="133.761017">
      <name>DISSH</name>
      <overfly>false</overfly>
    </rtept>
    <rtept lat="36.265153" lon="134.088203">
      <name>OVSOS</name>
      <overfly>false</overfly>
    </rtept>
    <rtept lat="36.242897" lon="134.503319">
      <name>SAMON</name>
      <overfly>false</overfly>
    </rtept>
    <rtept lat="37.099556" lon="136.720747">
      <name>NESKO</name>
      <overfly>false</overfly>
    </rtept>
    <rtept lat="37.710294" lon="138.403994">
      <name>BEGSA</name>
      <overfly>false</overfly>
    </rtept>
    <rtept lat="37.958294" lon="139.114886">
      <name>GTC</name>
      <overfly>false</overfly>
    </rtept>
    <rtept lat="38.026075" lon="139.761208">
      <name>ELDAK</name>
      <overfly>false</overfly>
    </rtept>
    <rtept lat="38.138572" lon="140.921483">
      <name>SDE</name>
      <overfly>false</overfly>
    </rtept>
    <rtept lat="38.005869" lon="142.061656">
      <name>BEKEN</name>
      <overfly>false</overfly>
    </rtept>
    <rtept lat="37.857286" lon="143.233467">
      <name>SOVMO</name>
      <overfly>false</overfly>
    </rtept>
    <rtept lat="37.816442" lon="143.539686">
      <name>OATIS</name>
      <overfly>false</overfly>
    </rtept>
    <rtept lat="37.197467" lon="145.666311">
      <name>ADNAP</name>
      <overfly>false</overfly>
    </rtept>
    <rtept lat="39.153836" lon="149.825503">
      <name>KALNA</name>
      <overfly>false</overfly>
    </rtept>
    <rtept lat="43.000000" lon="160.000000">
      <name>43E60</name>
      <overfly>false</overfly>
    </rtept>
    <rtept lat="45.000000" lon="170.000000">
      <name>45E70</name>
      <overfly>false</overfly>
    </rtept>
    <rtept lat="45.000000" lon="180.000000">
      <name>45E80</name>
      <overfly>false</overfly>
    </rtept>
    <rtept lat="45.000000" lon="-170.000000">
      <name>45N70</name>
      <overfly>false</overfly>
    </rtept>
    <rtept lat="45.000000" lon="-160.000000">
      <name>45N60</name>
      <overfly>false</overfly>
    </rtept>
    <rtept lat="45.000000" lon="-150.000000">
      <name>45N50</name>
      <overfly>false</overfly>
    </rtept>
    <rtept lat="44.000000" lon="-140.000000">
      <name>44N40</name>
      <overfly>false</overfly>
    </rtept>
    <rtept lat="41.000000" lon="-130.000000">
      <name>41N30</name>
      <overfly>false</overfly>
    </rtept>
    <rtept lat="40.006389" lon="-127.000000">
      <name>SHENU</name>
      <overfly>false</overfly>
    </rtept>
    <rtept lat="39.000000" lon="-123.750000">
      <name>AMAKR</name>
      <overfly>false</overfly>
    </rtept>
    <rtept lat="38.563978" lon="-122.538764">
      <name>CHBLI</name>
      <overfly>false</overfly>
    </rtept>

  </rte>
</gpx>
