<?xml version="1.0" encoding="UTF-8"?>
<kml xmlns="http://www.opengis.net/kml/2.2" xmlns:gx="http://www.google.com/kml/ext/2.2" xmlns:kml="http://www.opengis.net/kml/2.2" xmlns:atom="http://www.w3.org/2005/Atom">
<Document>
	<name>LICJ-HECA</name>
	<snippet>Created 일 6 21 15:48:04 2026</snippet>
	<LookAt>
		<longitude>22.256667</longitude>
		<latitude>34.480973</latitude>
		<altitude>0</altitude>
		<heading>0</heading>
		<tilt>0</tilt>
		<range>2517351.623229</range>
	</LookAt>
	<atom:link rel="app" href="https://www.google.com/earth/about/versions/#earth-pro" title="Google Earth Pro 7.3.7.1155"></atom:link>
	<StyleMap id="route">
		<Pair>
			<key>normal</key>
			<styleUrl>#route_n</styleUrl>
		</Pair>
		<Pair>
			<key>highlight</key>
			<styleUrl>#route_h</styleUrl>
		</Pair>
	</StyleMap>
	<Style id="route_h">
		<IconStyle>
			<scale>1.2</scale>
			<Icon>
				<href>https://earth.google.com/images/kml-icons/track-directional/track-none.png</href>
			</Icon>
		</IconStyle>
		<LineStyle>
			<color>ffffaaff</color>
			<width>5</width>
		</LineStyle>
	</Style>
	<Style id="route_n">
		<IconStyle>
			<Icon>
				<href>https://earth.google.com/images/kml-icons/track-directional/track-none.png</href>
			</Icon>
		</IconStyle>
		<LineStyle>
			<color>ffffaaff</color>
			<width>5</width>
		</LineStyle>
	</Style>
	<Folder>
		<name>Routes</name>
		<Folder>
			<name>LICJ-HECA</name>
			<Folder>
				<name>Points</name>
				<Placemark>
					<name>LICJ</name>
					<snippet></snippet>
					<description><![CDATA[<table>
<tr><td>Longitude: 13.099444 </td></tr>
<tr><td>Latitude: 38.181944 </td></tr>
</table>]]></description>
					<LookAt>
						<longitude>13.099444</longitude>
						<latitude>38.181944</latitude>
						<altitude>0</altitude>
						<heading>0</heading>
						<tilt>66</tilt>
						<range>0</range>
					</LookAt>
					<styleUrl>#route</styleUrl>
					<Point>
						<coordinates>13.099444,38.181944,0</coordinates>
					</Point>
				</Placemark>
				<Placemark>
					<name>ROSAS</name>
					<snippet></snippet>
					<description><![CDATA[<table>
<tr><td>Longitude: 13.539444 </td></tr>
<tr><td>Latitude: 38.850556 </td></tr>
</table>]]></description>
					<LookAt>
						<longitude>13.539444</longitude>
						<latitude>38.850556</latitude>
						<altitude>0</altitude>
						<heading>0</heading>
						<tilt>66</tilt>
						<range>0</range>
					</LookAt>
					<styleUrl>#route</styleUrl>
					<Point>
						<coordinates>13.539444,38.850556,0</coordinates>
					</Point>
				</Placemark>
				<Placemark>
					<name>BELIX</name>
					<snippet></snippet>
					<description><![CDATA[<table>
<tr><td>Longitude: 19.000000 </td></tr>
<tr><td>Latitude: 36.966667 </td></tr>
</table>]]></description>
					<LookAt>
						<longitude>19</longitude>
						<latitude>36.966667</latitude>
						<altitude>0</altitude>
						<heading>0</heading>
						<tilt>66</tilt>
						<range>0</range>
					</LookAt>
					<styleUrl>#route</styleUrl>
					<Point>
						<coordinates>19,36.966667,0</coordinates>
					</Point>
				</Placemark>
				<Placemark>
					<name>SIRIO</name>
					<snippet></snippet>
					<description><![CDATA[<table>
<tr><td>Longitude: 19.545278 </td></tr>
<tr><td>Latitude: 36.720278 </td></tr>
</table>]]></description>
					<LookAt>
						<longitude>19.545278</longitude>
						<latitude>36.720278</latitude>
						<altitude>0</altitude>
						<heading>0</heading>
						<tilt>66</tilt>
						<range>0</range>
					</LookAt>
					<styleUrl>#route</styleUrl>
					<Point>
						<coordinates>19.545278,36.720278,0</coordinates>
					</Point>
				</Placemark>
				<Placemark>
					<name>PLH</name>
					<snippet></snippet>
					<description><![CDATA[<table>
<tr><td>Longitude: 23.680844 </td></tr>
<tr><td>Latitude: 35.227636 </td></tr>
</table>]]></description>
					<LookAt>
						<longitude>23.680844</longitude>
						<latitude>35.227636</latitude>
						<altitude>0</altitude>
						<heading>0</heading>
						<tilt>66</tilt>
						<range>0</range>
					</LookAt>
					<styleUrl>#route</styleUrl>
					<Point>
						<coordinates>23.680844,35.227636,0</coordinates>
					</Point>
				</Placemark>
				<Placemark>
					<name>KUMBI</name>
					<snippet></snippet>
					<description><![CDATA[<table>
<tr><td>Longitude: 28.750000 </td></tr>
<tr><td>Latitude: 33.713889 </td></tr>
</table>]]></description>
					<LookAt>
						<longitude>28.75</longitude>
						<latitude>33.713889</latitude>
						<altitude>0</altitude>
						<heading>0</heading>
						<tilt>66</tilt>
						<range>0</range>
					</LookAt>
					<styleUrl>#route</styleUrl>
					<Point>
						<coordinates>28.75,33.713889,0</coordinates>
					</Point>
				</Placemark>
				<Placemark>
					<name>MIVOR</name>
					<snippet></snippet>
					<description><![CDATA[<table>
<tr><td>Longitude: 30.100833 </td></tr>
<tr><td>Latitude: 32.489444 </td></tr>
</table>]]></description>
					<LookAt>
						<longitude>30.100833</longitude>
						<latitude>32.489444</latitude>
						<altitude>0</altitude>
						<heading>0</heading>
						<tilt>66</tilt>
						<range>0</range>
					</LookAt>
					<styleUrl>#route</styleUrl>
					<Point>
						<coordinates>30.100833,32.489444,0</coordinates>
					</Point>
				</Placemark>
				<Placemark>
					<name>BLT</name>
					<snippet></snippet>
					<description><![CDATA[<table>
<tr><td>Longitude: 31.122500 </td></tr>
<tr><td>Latitude: 31.528889 </td></tr>
</table>]]></description>
					<LookAt>
						<longitude>31.1225</longitude>
						<latitude>31.528889</latitude>
						<altitude>0</altitude>
						<heading>0</heading>
						<tilt>66</tilt>
						<range>0</range>
					</LookAt>
					<styleUrl>#route</styleUrl>
					<Point>
						<coordinates>31.1225,31.528889,0</coordinates>
					</Point>
				</Placemark>
				<Placemark>
					<name>DEGDI</name>
					<snippet></snippet>
					<description><![CDATA[<table>
<tr><td>Longitude: 31.176389 </td></tr>
<tr><td>Latitude: 31.241389 </td></tr>
</table>]]></description>
					<LookAt>
						<longitude>31.176389</longitude>
						<latitude>31.241389</latitude>
						<altitude>0</altitude>
						<heading>0</heading>
						<tilt>66</tilt>
						<range>0</range>
					</LookAt>
					<styleUrl>#route</styleUrl>
					<Point>
						<coordinates>31.176389,31.241389,0</coordinates>
					</Point>
				</Placemark>
				<Placemark>
					<name>MERPI</name>
					<snippet></snippet>
					<description><![CDATA[<table>
<tr><td>Longitude: 31.320000 </td></tr>
<tr><td>Latitude: 30.465556 </td></tr>
</table>]]></description>
					<LookAt>
						<longitude>31.32</longitude>
						<latitude>30.465556</latitude>
						<altitude>0</altitude>
						<heading>0</heading>
						<tilt>66</tilt>
						<range>0</range>
					</LookAt>
					<styleUrl>#route</styleUrl>
					<Point>
						<coordinates>31.32,30.465556,0</coordinates>
					</Point>
				</Placemark>
				<Placemark>
					<name>HECA</name>
					<snippet></snippet>
					<description><![CDATA[<table>
<tr><td>Longitude: 31.413889 </td></tr>
<tr><td>Latitude: 30.111389 </td></tr>
</table>]]></description>
					<LookAt>
						<longitude>31.413889</longitude>
						<latitude>30.111389</latitude>
						<altitude>0</altitude>
						<heading>0</heading>
						<tilt>66</tilt>
						<range>0</range>
					</LookAt>
					<styleUrl>#route</styleUrl>
					<Point>
						<coordinates>31.413889,30.111389,0</coordinates>
					</Point>
				</Placemark>
			</Folder>
			<Placemark>
				<name>Path</name>
				<styleUrl>#route</styleUrl>
				<LineString>
					<tessellate>1</tessellate>
					<coordinates>
						13.099444,38.181944,0 13.539444,38.850556,0 19,36.966667,0 19.545278,36.720278,0 23.680844,35.227636,0 28.75,33.713889,0 30.100833,32.489444,0 31.1225,31.528889,0 31.176389,31.241389,0 31.32,30.465556,0 31.413889,30.111389,0 
					</coordinates>
				</LineString>
			</Placemark>
		</Folder>
	</Folder>
</Document>
</kml>
